[{"OBJECT_NAME":"STARLINK-34378","OBJECT_ID":"2025-123J","EPOCH":"2026-03-09T17:18:41.304096","MEAN_MOTION":14.9832804,"ECCENTRICITY":0.00031151,"INCLINATION":70.0027,"RA_OF_ASC_NODE":194.3646,"ARG_OF_PERICENTER":267.7403,"MEAN_ANOMALY":92.3399,"EPHEMERIS_TYPE":0,"CLASSIFICATION_TYPE":"U","NORAD_CAT_ID":64299,"ELEMENT_SET_NO":999,"REV_AT_EPOCH":4162,"BSTAR":0.00011103822,"MEAN_MOTION_DOT":1.232e-5,"MEAN_MOTION_DDOT":0},{"OBJECT_NAME":"COSMOS 2251 DEB","OBJECT_ID":"1993-036NN","EPOCH":"2026-03-09T07:26:11.225760","MEAN_MOTION":14.9633519,"ECCENTRICITY":0.00121484,"INCLINATION":74.0636,"RA_OF_ASC_NODE":162.8967,"ARG_OF_PERICENTER":260.3814,"MEAN_ANOMALY":99.5998,"EPHEMERIS_TYPE":0,"CLASSIFICATION_TYPE":"U","NORAD_CAT_ID":34316,"ELEMENT_SET_NO":999,"REV_AT_EPOCH":90502,"BSTAR":0.0021825431,"MEAN_MOTION_DOT":0.00024784,"MEAN_MOTION_DDOT":0}]
